NORAD_CAT_ID,OBJECT_NAME,OBJECT_TYPE,EPOCH,MEAN_MOTION,ECCENTRICITY,INCLINATION,RA_OF_ASC_NODE,ARG_OF_PERICENTER,MEAN_ANOMALY,BSTAR,MEAN_MOTION_DOT,MEAN_MOTION_DDOT,TLE_LINE0,TLE_LINE1,TLE_LINE2,SEMIMAJOR_AXIS,PERIOD,APOGEE,PERIGEE,DECAYED
52549.0,STARLINK-3935,PAYLOAD,2024-04-27 22:15:58,15.08847667,0.0001312,53.2175,305.1794,101.5209,258.5931,0.00063199,9.787e-05,0.0,0 STARLINK-3935,1 52549U 22051S   24118.92776541  .00009787  00000-0  63199-3 0  9994,2 52549  53.2175 305.1794 0001312 101.5209 258.5931 15.08847667108671,6917.857,95.437,540.63,538.814,0.0
52549.0,STARLINK-3935,PAYLOAD,2024-04-28 12:34:27,15.08845444,0.0001709,53.2175,302.5002,113.0166,247.1006,0.00053061,8.168e-05,0.0,0 STARLINK-3935,1 52549U 22051S   24119.52392679  .00008168  00000-0  53061-3 0  9996,2 52549  53.2175 302.5002 0001709 113.0166 247.1006 15.08845444108762,6917.864,95.437,540.911,538.546,0.0
52549.0,STARLINK-3935,PAYLOAD,2024-04-28 22:06:45,15.08859569,0.0001356,53.2176,300.7187,98.939,261.1755,0.00076565,0.00011925,0.0,0 STARLINK-3935,1 52549U 22051S   24119.92136247  .00011925  00000-0  76565-3 0  9996,2 52549  53.2176 300.7187 0001356  98.9390 261.1755 15.08859569108822,6917.821,95.436,540.624,538.748,0.0
52549.0,STARLINK-3935,PAYLOAD,2024-04-29 18:46:46,15.08850896,0.0001609,53.2183,296.8547,82.8703,277.2472,9.5057e-05,1.226e-05,0.0,0 STARLINK-3935,1 52549U 22051S   24120.78247972  .00001226  00000-0  95057-4 0  9991,2 52549  53.2183 296.8547 0001609  82.8703 277.2472 15.08850896109027,6917.847,95.437,540.825,538.599,0.0
52549.0,STARLINK-3935,PAYLOAD,2024-04-30 04:19:05,15.08845384,0.0001333,53.2172,295.0712,85.6489,274.4655,0.00012775,1.746e-05,0.0,0 STARLINK-3935,1 52549U 22051S   24121.17991978  .00001746  00000-0  12775-3 0  9999,2 52549  53.2172 295.0712 0001333  85.6489 274.4655 15.08845384109013,6917.864,95.437,540.651,538.807,0.0
52549.0,STARLINK-3935,PAYLOAD,2024-04-30 18:37:33,15.08848531,0.000139,53.218,292.3964,93.8653,266.2498,8.5763e-05,1.078e-05,0.0,0 STARLINK-3935,1 52549U 22051S   24121.77607804  .00001078  00000-0  85763-4 0  9993,2 52549  53.2180 292.3964 0001390  93.8653 266.2498 15.08848531109176,6917.854,95.437,540.681,538.758,0.0
52549.0,STARLINK-3935,PAYLOAD,2024-05-01 04:09:51,15.08848873,0.0001354,53.2177,290.6115,89.1875,270.9273,0.0001473,2.058e-05,0.0,0 STARLINK-3935,1 52549U 22051S   24122.17351710  .00002058  00000-0  14730-3 0  9994,2 52549  53.2177 290.6115 0001354  89.1875 270.9273 15.08848873109166,6917.853,95.437,540.655,538.782,0.0
52549.0,STARLINK-3935,PAYLOAD,2024-05-01 20:03:43,15.08844389,0.0001396,53.2177,287.6381,88.1856,271.9296,0.00010486,1.381e-05,0.0,0 STARLINK-3935,1 52549U 22051S   24122.83591775  .00001381  00000-0  10486-3 0  9996,2 52549  53.2177 287.6381 0001396  88.1856 271.9296 15.08844389109266,6917.867,95.437,540.698,538.766,0.0
52549.0,STARLINK-3935,PAYLOAD,2024-05-02 04:00:39,15.08839284,0.0001385,53.218,286.1509,88.0555,272.0596,3.8938e-05,3.32e-06,0.0,0 STARLINK-3935,1 52549U 22051S   24123.16712093  .00000332  00000-0  38938-4 0  9999,2 52549  53.2180 286.1509 0001385  88.0555 272.0596 15.08839284109385,6917.883,95.438,540.706,538.789,0.0
52549.0,STARLINK-3935,PAYLOAD,2024-05-02 15:08:21,15.08835199,0.0001381,53.2181,284.0693,88.1973,271.9178,-9.1336e-06,-4.33e-06,0.0,0 STARLINK-3935,1 52549U 22051S   24123.63080393 -.00000433  00000-0 -91336-5 0  9998,2 52549  53.2181 284.0693 0001381  88.1973 271.9178 15.08835199109383,6917.895,95.438,540.715,538.805,0.0
52549.0,STARLINK-3935,PAYLOAD,2024-05-03 03:51:26,15.08842549,0.0001442,53.2183,281.689,81.4723,278.6432,5.7824e-05,6.32e-06,0.0,0 STARLINK-3935,1 52549U 22051S   24124.16072297  .00000632  00000-0  57824-4 0  9993,2 52549  53.2183 281.6890 0001442  81.4723 278.6432 15.08842549109467,6917.873,95.437,540.735,538.74,0.0
52549.0,STARLINK-3935,PAYLOAD,2024-05-03 16:34:31,15.08844061,0.0001059,53.2172,279.31,79.8729,280.2382,9.2019e-05,1.177e-05,0.0,0 STARLINK-3935,1 52549U 22051S   24124.69063879  .00001177  00000-0  92019-4 0  9997,2 52549  53.2172 279.3100 0001059  79.8729 280.2382 15.08844061109615,6917.868,95.437,540.466,539.0,0.0
52549.0,STARLINK-3935,PAYLOAD,2024-05-04 10:03:46,15.08835449,0.0001398,53.2181,276.0412,80.6894,279.4256,0.00010077,1.316e-05,0.0,0 STARLINK-3935,1 52549U 22051S   24125.41928623  .00001316  00000-0  10077-3 0  9993,2 52549  53.2181 276.0412 0001398  80.6894 279.4256 15.08835449109726,6917.894,95.438,540.726,538.792,0.0
52549.0,STARLINK-3935,PAYLOAD,2024-05-05 13:05:19,15.08821322,0.0001395,53.2171,270.9835,94.8377,265.2775,0.0005311,8.17e-05,0.0,0 STARLINK-3935,1 52549U 22051S   24126.54536829  .00008170  00000-0  53110-3 0  9991,2 52549  53.2171 270.9835 0001395  94.8377 265.2775 15.08821322109899,6917.937,95.439,540.768,538.837,0.0
52549.0,STARLINK-3935,PAYLOAD,2024-05-05 14:40:42,15.08837412,0.0001445,53.2178,270.686,91.0768,269.039,0.00028532,4.256e-05,0.0,0 STARLINK-3935,1 52549U 22051S   24126.61160223  .00004256  00000-0  28532-3 0  9991,2 52549  53.2178 270.6860 0001445  91.0768 269.0390 15.08837412109836,6917.888,95.438,540.753,538.754,0.0
52549.0,STARLINK-3935,PAYLOAD,2024-05-06 14:31:29,15.08840536,0.0001368,53.2178,266.2267,86.9627,273.1522,0.00011028,1.468e-05,0.0,0 STARLINK-3935,1 52549U 22051S   24127.60520220  .00001468  00000-0  11028-3 0  9992,2 52549  53.2178 266.2267 0001368  86.9627 273.1522 15.08840536109989,6917.879,95.438,540.69,538.797,0.0
52549.0,STARLINK-3935,PAYLOAD,2024-05-06 16:06:52,15.08844002,0.0001398,53.2183,265.9282,92.3434,267.7718,0.00013459,1.855e-05,0.0,0 STARLINK-3935,1 52549U 22051S   24127.67143913  .00001855  00000-0  13459-3 0  9999,2 52549  53.2183 265.9282 0001398  92.3434 267.7718 15.08844002110067,6917.868,95.437,540.7,538.766,0.0
52549.0,STARLINK-3935,PAYLOAD,2024-05-07 12:46:53,15.08839709,0.0001362,53.2182,262.0638,94.5544,265.5604,6.3407e-06,-1.87e-06,0.0,0 STARLINK-3935,1 52549U 22051S   24128.53256450 -.00000187  00000-0  63407-5 0  9994,2 52549  53.2182 262.0638 0001362  94.5544 265.5604 15.08839709110198,6917.881,95.438,540.688,538.804,0.0
52549.0,STARLINK-3935,PAYLOAD,2024-05-07 14:22:16,15.0883784,0.000121,53.2186,261.7688,88.2494,271.8636,5.3774e-05,5.68e-06,0.0,0 STARLINK-3935,1 52549U 22051S   24128.59880424  .00000568  00000-0  53774-4 0  9991,2 52549  53.2186 261.7688 0001210  88.2494 271.8636 15.08837840110132,6917.887,95.438,540.589,538.915,0.0
52549.0,STARLINK-3935,PAYLOAD,2024-05-07 15:57:39,15.08850213,0.0001748,53.2187,261.4727,85.4051,274.7141,-0.00012127,-2.218e-05,0.0,0 STARLINK-3935,1 52549U 22051S   24128.66504024 -.00002218  00000-0 -12127-3 0  9990,2 52549  53.2187 261.4727 0001748  85.4051 274.7141 15.08850213110219,6917.849,95.437,540.923,538.505,0.0
52549.0,STARLINK-3935,PAYLOAD,2024-05-08 12:37:41,15.0883088,0.000137,53.2187,257.6069,101.6546,258.46,5.7699e-06,-1.96e-06,0.0,0 STARLINK-3935,1 52549U 22051S   24129.52617280 -.00000196  00000-0  57699-5 0  9992,2 52549  53.2187 257.6069 0001370 101.6546 258.4600 15.08830880110347,6917.908,95.438,540.721,538.826,0.0
52549.0,STARLINK-3935,PAYLOAD,2024-05-08 14:13:04,15.0883282,0.0001363,53.2178,257.3086,98.4402,261.6745,1.9196e-05,1.8e-07,0.0,0 STARLINK-3935,1 52549U 22051S   24129.59241164  .00000018  00000-0  19196-4 0  9994,2 52549  53.2178 257.3086 0001363  98.4402 261.6745 15.08832820110284,6917.902,95.438,540.71,538.824,0.0
52549.0,STARLINK-3935,PAYLOAD,2024-05-08 15:48:27,15.08837159,0.0001172,53.217,257.0103,95.9096,264.203,4.641e-05,4.51e-06,0.0,0 STARLINK-3935,1 52549U 22051S   24129.65864833  .00000451  00000-0  46410-4 0  9995,2 52549  53.2170 257.0103 0001172  95.9096 264.2030 15.08837159110367,6917.889,95.438,540.565,538.943,0.0
52549.0,STARLINK-3935,PAYLOAD,2024-05-09 14:03:50,15.08845728,0.0001189,53.2167,252.8464,89.5734,270.5394,0.00014961,2.094e-05,0.0,0 STARLINK-3935,1 52549U 22051S   24130.58600238  .00002094  00000-0  14961-3 0  9996,2 52549  53.2167 252.8464 0001189  89.5734 270.5394 15.08845728110434,6917.863,95.437,540.55,538.905,0.0
52549.0,STARLINK-3935,PAYLOAD,2024-05-10 12:19:13,15.08889419,8.6e-05,53.2164,248.6825,100.4977,259.6112,-0.00049085,-8.102e-05,0.0,0 STARLINK-3935,1 52549U 22051S   24131.51334758 -.00008102  00000-0 -49085-3 0  9994,2 52549  53.2164 248.6825 0000860 100.4977 259.6112 15.08889419110646,6917.729,95.434,540.189,538.999,0.0
52549.0,STARLINK-3935,PAYLOAD,2024-05-10 13:54:37,15.08843315,0.0001178,53.2169,248.3857,96.5638,263.5488,0.00022745,3.334e-05,0.0,0 STARLINK-3935,1 52549U 22051S   24131.57960291  .00003334  00000-0  22745-3 0  9991,2 52549  53.2169 248.3857 0001178  96.5638 263.5488 15.08843315110583,6917.87,95.437,540.55,538.92,0.0
52549.0,STARLINK-3935,PAYLOAD,2024-05-10 15:30:00,15.08851854,0.0001268,53.2179,248.0881,74.0595,286.0537,0.0001686,2.397e-05,0.0,0 STARLINK-3935,1 52549U 22051S   24131.64583974  .00002397  00000-0  16860-3 0  9997,2 52549  53.2179 248.0881 0001268  74.0595 286.0537 15.08851854110662,6917.844,95.437,540.586,538.832,0.0
52549.0,STARLINK-3935,PAYLOAD,2024-05-11 13:45:23,15.08837186,0.0001312,53.2184,243.9208,114.4379,245.675,-0.00022816,-3.917e-05,0.0,0 STARLINK-3935,1 52549U 22051S   24132.57319337 -.00003917  00000-0 -22816-3 0  9999,2 52549  53.2184 243.9208 0001312 114.4379 245.6750 15.08837186110800,6917.889,95.438,540.662,538.846,0.0
52549.0,STARLINK-3935,PAYLOAD,2024-05-11 16:56:09,15.08858033,0.0001543,53.2182,243.3291,87.5939,272.523,0.00021457,3.13e-05,0.0,0 STARLINK-3935,1 52549U 22051S   24132.70566993  .00003130  00000-0  21457-3 0  9991,2 52549  53.2182 243.3291 0001543  87.5939 272.5230 15.08858033110820,6917.825,95.436,540.758,538.623,0.0
52549.0,STARLINK-3935,PAYLOAD,2024-05-12 00:53:07,15.08808594,0.0002117,53.2179,241.8416,73.449,286.6735,-0.00060401,-9.88e-05,0.0,0 STARLINK-3935,1 52549U 22051S   24133.03689512 -.00009880  00000-0 -60401-3 0  9993,2 52549  53.2179 241.8416 0002117  73.4490 286.6735 15.08808594110870,6917.976,95.44,541.306,538.377,0.0
